O3B MPOWER F1           
1 54755U 22174A   23259.53613338 -.00000019  00000+0  00000+0 0  9994
2 54755   0.0463  16.4813 0004795 173.3897 248.0572  5.00118521 15105
